CCSDS_OMM_VERS = 2.0
CREATION_DATE  = 
ORIGINATOR     = 

OBJECT_NAME    = COSMOS 2242
OBJECT_ID      = 1993-024A
CENTER_NAME    = EARTH
REF_FRAME      = TEME
TIME_SYSTEM    = UTC
MEAN_ELEMENT_THEORY = SGP/SGP4

EPOCH          = 2026-03-31T10:22:33.299040
MEAN_MOTION    = 14.96645383
ECCENTRICITY   = .0015221
INCLINATION    = 82.5167
RA_OF_ASC_NODE = 245.9134
ARG_OF_PERICENTER = 228.9610
MEAN_ANOMALY   = 131.0297

EPHEMERIS_TYPE = 0
CLASSIFICATION_TYPE = U
NORAD_CAT_ID   = 22626
ELEMENT_SET_NO = 999
REV_AT_EPOCH   = 78364
BSTAR          = .29614E-3
MEAN_MOTION_DOT = .3408E-4
MEAN_MOTION_DDOT = 0

CCSDS_OMM_VERS = 2.0
CREATION_DATE  = 
ORIGINATOR     = 

OBJECT_NAME    = SL-16 R/B
OBJECT_ID      = 1993-059B
CENTER_NAME    = EARTH
REF_FRAME      = TEME
TIME_SYSTEM    = UTC
MEAN_ELEMENT_THEORY = SGP/SGP4

EPOCH          = 2026-03-31T01:47:37.233600
MEAN_MOTION    = 14.17234538
ECCENTRICITY   = .00172963
INCLINATION    = 70.9914
RA_OF_ASC_NODE = 326.0327
ARG_OF_PERICENTER = 185.3137
MEAN_ANOMALY   = 174.7806

EPHEMERIS_TYPE = 0
CLASSIFICATION_TYPE = U
NORAD_CAT_ID   = 22803
ELEMENT_SET_NO = 999
REV_AT_EPOCH   = 68256
BSTAR          = -.53684701E-4
MEAN_MOTION_DOT = -.157E-5
MEAN_MOTION_DDOT = 0

CCSDS_OMM_VERS = 2.0
CREATION_DATE  = 
ORIGINATOR     = 

OBJECT_NAME    = ARIANE 40 R/B
OBJECT_ID      = 1993-061H
CENTER_NAME    = EARTH
REF_FRAME      = TEME
TIME_SYSTEM    = UTC
MEAN_ELEMENT_THEORY = SGP/SGP4

EPOCH          = 2026-03-31T09:58:44.008032
MEAN_MOTION    = 14.32872678
ECCENTRICITY   = .0010146
INCLINATION    = 98.4876
RA_OF_ASC_NODE = 158.8705
ARG_OF_PERICENTER = 214.2956
MEAN_ANOMALY   = 145.7574

EPHEMERIS_TYPE = 0
CLASSIFICATION_TYPE = U
NORAD_CAT_ID   = 22830
ELEMENT_SET_NO = 999
REV_AT_EPOCH   = 69721
BSTAR          = .11495071E-3
MEAN_MOTION_DOT = .271E-5
MEAN_MOTION_DDOT = 0

CCSDS_OMM_VERS = 2.0
CREATION_DATE  = 
ORIGINATOR     = 

OBJECT_NAME    = COSMOS 2278
OBJECT_ID      = 1994-023A
CENTER_NAME    = EARTH
REF_FRAME      = TEME
TIME_SYSTEM    = UTC
MEAN_ELEMENT_THEORY = SGP/SGP4

EPOCH          = 2026-03-31T12:31:44.263776
MEAN_MOTION    = 14.14374929
ECCENTRICITY   = .00092413
INCLINATION    = 71.0510
RA_OF_ASC_NODE = 129.4230
ARG_OF_PERICENTER = 340.2097
MEAN_ANOMALY   = 19.8665

EPHEMERIS_TYPE = 0
CLASSIFICATION_TYPE = U
NORAD_CAT_ID   = 23087
ELEMENT_SET_NO = 999
REV_AT_EPOCH   = 64789
BSTAR          = -.3452393E-4
MEAN_MOTION_DOT = -.113E-5
MEAN_MOTION_DDOT = 0

CCSDS_OMM_VERS = 2.0
CREATION_DATE  = 
ORIGINATOR     = 

OBJECT_NAME    = SL-16 R/B
OBJECT_ID      = 1994-023B
CENTER_NAME    = EARTH
REF_FRAME      = TEME
TIME_SYSTEM    = UTC
MEAN_ELEMENT_THEORY = SGP/SGP4

EPOCH          = 2026-03-31T13:24:31.421664
MEAN_MOTION    = 14.15017450
ECCENTRICITY   = .00055087
INCLINATION    = 71.0025
RA_OF_ASC_NODE = 24.9584
ARG_OF_PERICENTER = 265.8842
MEAN_ANOMALY   = 94.1651

EPHEMERIS_TYPE = 0
CLASSIFICATION_TYPE = U
NORAD_CAT_ID   = 23088
ELEMENT_SET_NO = 999
REV_AT_EPOCH   = 64918
BSTAR          = .18133549E-3
MEAN_MOTION_DOT = .304E-5
MEAN_MOTION_DDOT = 0

CCSDS_OMM_VERS = 2.0
CREATION_DATE  = 
ORIGINATOR     = 

OBJECT_NAME    = SL-16 R/B
OBJECT_ID      = 1994-074B
CENTER_NAME    = EARTH
REF_FRAME      = TEME
TIME_SYSTEM    = UTC
MEAN_ELEMENT_THEORY = SGP/SGP4

EPOCH          = 2026-03-31T12:34:56.226432
MEAN_MOTION    = 14.79433277
ECCENTRICITY   = .0007474
INCLINATION    = 97.7076
RA_OF_ASC_NODE = 120.4548
ARG_OF_PERICENTER = 140.6216
MEAN_ANOMALY   = 26.3571

EPHEMERIS_TYPE = 0
CLASSIFICATION_TYPE = U
NORAD_CAT_ID   = 23343
ELEMENT_SET_NO = 999
REV_AT_EPOCH   = 69047
BSTAR          = .94883494E-4
MEAN_MOTION_DOT = .659E-5
MEAN_MOTION_DDOT = 0

CCSDS_OMM_VERS = 2.0
CREATION_DATE  = 
ORIGINATOR     = 

OBJECT_NAME    = SL-16 R/B
OBJECT_ID      = 1994-077B
CENTER_NAME    = EARTH
REF_FRAME      = TEME
TIME_SYSTEM    = UTC
MEAN_ELEMENT_THEORY = SGP/SGP4

EPOCH          = 2026-03-31T07:40:27.958656
MEAN_MOTION    = 14.15569029
ECCENTRICITY   = .00017994
INCLINATION    = 70.9830
RA_OF_ASC_NODE = 306.9852
ARG_OF_PERICENTER = 195.1952
MEAN_ANOMALY   = 164.9117

EPHEMERIS_TYPE = 0
CLASSIFICATION_TYPE = U
NORAD_CAT_ID   = 23405
ELEMENT_SET_NO = 999
REV_AT_EPOCH   = 61929
BSTAR          = -.39603143E-4
MEAN_MOTION_DOT = -.125E-5
MEAN_MOTION_DDOT = 0

CCSDS_OMM_VERS = 2.0
CREATION_DATE  = 
ORIGINATOR     = 

OBJECT_NAME    = ARIANE 40+ R/B
OBJECT_ID      = 1995-021B
CENTER_NAME    = EARTH
REF_FRAME      = TEME
TIME_SYSTEM    = UTC
MEAN_ELEMENT_THEORY = SGP/SGP4

EPOCH          = 2026-03-31T11:45:03.413376
MEAN_MOTION    = 14.39788277
ECCENTRICITY   = .00078961
INCLINATION    = 98.4459
RA_OF_ASC_NODE = 161.6727
ARG_OF_PERICENTER = 80.3952
MEAN_ANOMALY   = 290.4651

EPHEMERIS_TYPE = 0
CLASSIFICATION_TYPE = U
NORAD_CAT_ID   = 23561
ELEMENT_SET_NO = 999
REV_AT_EPOCH   = 62238
BSTAR          = .13541534E-3
MEAN_MOTION_DOT = .381E-5
MEAN_MOTION_DDOT = 0

CCSDS_OMM_VERS = 2.0
CREATION_DATE  = 
ORIGINATOR     = 

OBJECT_NAME    = SL-16 R/B
OBJECT_ID      = 1995-058B
CENTER_NAME    = EARTH
REF_FRAME      = TEME
TIME_SYSTEM    = UTC
MEAN_ELEMENT_THEORY = SGP/SGP4

EPOCH          = 2026-03-31T12:57:19.812960
MEAN_MOTION    = 14.15498354
ECCENTRICITY   = .00101847
INCLINATION    = 71.0197
RA_OF_ASC_NODE = 134.3839
ARG_OF_PERICENTER = 85.5031
MEAN_ANOMALY   = 274.7255

EPHEMERIS_TYPE = 0
CLASSIFICATION_TYPE = U
NORAD_CAT_ID   = 23705
ELEMENT_SET_NO = 999
REV_AT_EPOCH   = 57094
BSTAR          = -.68168581E-4
MEAN_MOTION_DOT = -.181E-5
MEAN_MOTION_DDOT = 0

CCSDS_OMM_VERS = 2.0
CREATION_DATE  = 
ORIGINATOR     = 

OBJECT_NAME    = SL-16 R/B
OBJECT_ID      = 1996-051B
CENTER_NAME    = EARTH
REF_FRAME      = TEME
TIME_SYSTEM    = UTC
MEAN_ELEMENT_THEORY = SGP/SGP4

EPOCH          = 2026-03-31T13:17:42.362592
MEAN_MOTION    = 14.12422119
ECCENTRICITY   = .00133248
INCLINATION    = 70.7583
RA_OF_ASC_NODE = 128.9624
ARG_OF_PERICENTER = 112.4783
MEAN_ANOMALY   = 247.7749

EPHEMERIS_TYPE = 0
CLASSIFICATION_TYPE = U
NORAD_CAT_ID   = 24298
ELEMENT_SET_NO = 999
REV_AT_EPOCH   = 52473
BSTAR          = .10702406E-3
MEAN_MOTION_DOT = .148E-5
MEAN_MOTION_DDOT = 0

CCSDS_OMM_VERS = 2.0
CREATION_DATE  = 
ORIGINATOR     = 

OBJECT_NAME    = ORBVIEW 2 (SEASTAR)
OBJECT_ID      = 1997-037A
CENTER_NAME    = EARTH
REF_FRAME      = TEME
TIME_SYSTEM    = UTC
MEAN_ELEMENT_THEORY = SGP/SGP4

EPOCH          = 2026-03-31T10:38:48.858720
MEAN_MOTION    = 14.35510453
ECCENTRICITY   = .00022678
INCLINATION    = 98.8604
RA_OF_ASC_NODE = 255.3361
ARG_OF_PERICENTER = 23.2236
MEAN_ANOMALY   = 336.9051

EPHEMERIS_TYPE = 0
CLASSIFICATION_TYPE = U
NORAD_CAT_ID   = 24883
ELEMENT_SET_NO = 999
REV_AT_EPOCH   = 51159
BSTAR          = .14776239E-3
MEAN_MOTION_DOT = .378E-5
MEAN_MOTION_DDOT = 0

CCSDS_OMM_VERS = 2.0
CREATION_DATE  = 
ORIGINATOR     = 

OBJECT_NAME    = SL-16 R/B
OBJECT_ID      = 1998-043G
CENTER_NAME    = EARTH
REF_FRAME      = TEME
TIME_SYSTEM    = UTC
MEAN_ELEMENT_THEORY = SGP/SGP4

EPOCH          = 2026-03-31T08:12:17.271648
MEAN_MOTION    = 14.26054896
ECCENTRICITY   = .00090958
INCLINATION    = 98.8291
RA_OF_ASC_NODE = 43.8636
ARG_OF_PERICENTER = 316.6829
MEAN_ANOMALY   = 43.3635

EPHEMERIS_TYPE = 0
CLASSIFICATION_TYPE = U
NORAD_CAT_ID   = 25400
ELEMENT_SET_NO = 999
REV_AT_EPOCH   = 44207
BSTAR          = .54645844E-4
MEAN_MOTION_DOT = .85E-6
MEAN_MOTION_DDOT = 0

